CCSDS_OMM_VERS,COMMENT,CREATION_DATE,ORIGINATOR,OBJECT_NAME,OBJECT_ID,CENTER_NAME,REF_FRAME,TIME_SYSTEM,MEAN_ELEMENT_THEORY,EPOCH,MEAN_MOTION,ECCENTRICITY,INCLINATION,RA_OF_ASC_NODE,ARG_OF_PERICENTER,MEAN_ANOMALY,EPHEMERIS_TYPE,CLASSIFICATION_TYPE,NORAD_CAT_ID,ELEMENT_SET_NO,REV_AT_EPOCH,BSTAR,MEAN_MOTION_DOT,MEAN_MOTION_DDOT,SEMIMAJOR_AXIS,PERIOD,APOAPSIS,PERIAPSIS,OBJECT_TYPE,RCS_SIZE,COUNTRY_CODE,LAUNCH_DATE,SITE,DECAY_DATE,FILE,GP_ID,TLE_LINE0,TLE_LINE1,TLE_LINE2
3.0,GENERATED VIA SPACE-TRACK.ORG API,2008-11-19T08:51:24,18 SPCS,COSMOS 2421 DEB,2006-026UA,EARTH,TEME,UTC,SGP4,2008-11-17T06:36:28.002239,16.11514719,0.0012197,64.9657,277.1551,164.4765,203.0874,0,U,33310,999,1663,0.0027993,0.02558358,0.008958,6620.832,89.356,250.772,234.622,DEBRIS,SMALL,CIS,2006-06-25,TTMTR,2008-11-17,634914,68774624,0 COSMOS 2421 DEB,1 33310U 06026UA  08322.27532410  .02558358  89580-2  27993-2 0  9993,2 33310 064.9657 277.1551 0012197 164.4765 203.0874 16.11514719 16636
3.0,GENERATED VIA SPACE-TRACK.ORG API,2004-08-16T23:12:32,18 SPCS,TITAN 3D R/B,1980-052B,EARTH,TEME,UTC,SGP4,1980-06-20T08:15:57.170015,16.41827202,0.0043444,96.4535,242.176,106.6385,254.9441,0,U,11851,999,26,1.023e-07,0.06923617,1.109e-08,6539.087,87.707,189.36,132.544,ROCKET BODY,,,,,1980-06-20,34277,11616250,0 TITAN 3D R/B,1 11851U 80052  B 80172.34441169  .06923617 +01109-6 +01023-5 0  9993,2 11851 096.4535 242.1760 0043444 106.6385 254.9441 16.41827202000260
3.0,GENERATED VIA SPACE-TRACK.ORG API,2004-08-15T23:35:29,18 SPCS,DISCOVERER 34,1961-029A,EARTH,TEME,UTC,SGP4,1962-12-02T18:18:03.239135,16.17980445,0.0031533,82.4868,15.1658,216.6491,104.9474,0,U,197,999,5985,0.0,0.01490875,0.0,6603.182,88.999,245.868,204.225,PAYLOAD,,,,,1962-12-07,33908,8676425,0 DISCOVERER 34,1 00197U 61029  A 62336.76253749  .01490875 +00000-0 +00000-0 0  9992,2 00197 082.4868 015.1658 0031533 216.6491 104.9474 16.17980445059856
3.0,GENERATED VIA SPACE-TRACK.ORG API,2005-05-02T23:37:16,18 SPCS,M-3S DEB,1984-015F,EARTH,TEME,UTC,SGP4,1988-12-09T11:48:06.787007,15.94767798,0.005791,74.6235,6.9361,246.8743,114.7167,0,U,19665,999,822,0.0086278,0.03911256,4e-07,6667.102,90.295,327.576,250.358,DEBRIS,,,,,1988-12-11,130984,43277597,0 M-3S DEB,1 19665U 84015F   88344.49174522  .03911256 +40000-6 +86278-2 0  9996,2 19665 074.6235 006.9361 0057910 246.8743 114.7167 15.94767798008229
3.0,GENERATED VIA SPACE-TRACK.ORG API,2007-12-16T00:03:53,18 SPCS,SL-26 R/B,2007-061B,EARTH,TEME,UTC,SGP4,2007-12-16T06:15:27.573120,16.47487063,0.0018742,95.4412,354.065,297.8648,62.2609,0,U,32383,999,28,0.00014381,0.10020279,1.4458e-06,6524.102,87.405,158.194,133.74,ROCKET BODY,,,,,2007-12-16,487996,64327916,0 SL-26 R/B,1 32383U 07061B   07350.26073580  .10020279  14458-5  14381-3 0  9997,2 32383 095.4412 354.0650 0018742 297.8648 062.2609 16.47487063   286
3.0,GENERATED VIA SPACE-TRACK.ORG API,2004-08-17T15:27:54,18 SPCS,SL-16 DEB,1992-093BV,EARTH,TEME,UTC,SGP4,2000-12-09T20:44:58.117920,16.28303145,0.0014868,70.5977,279.2913,155.0271,206.4315,0,U,22380,999,41460,0.031944,0.99999999,3.646e-06,6575.245,88.435,206.886,187.333,DEBRIS,SMALL,CIS,1992-12-25,TTMTR,2000-12-09,35607,35304651,0 SL-16 DEB,1 22380U 92093BV  00344.86456155 +.99999999 +36460-5 +31944-1 0  9997,2 22380 070.5977 279.2913 0014868 155.0271 206.4315 16.28303145414602
3.0,GENERATED VIA SPACE-TRACK.ORG API,2004-08-15T23:39:38,18 SPCS,SL-6 PLAT,1975-049D,EARTH,TEME,UTC,SGP4,1975-07-08T12:58:54.971328,16.38478482,0.0024616,62.8234,95.8824,138.6045,221.6942,0,U,7905,999,536,0.00073018,0.06335373,0.20491,6547.994,87.886,185.977,153.74,DEBRIS,,,,,1975-07-09,33991,9547226,0 SL-6 PLAT,1 07905U 75049  D 75189.54091402  .06335373 +20491-0 +73018-3 0  9999,2 07905 062.8234 095.8824 0024616 138.6045 221.6942 16.38478482005361
3.0,GENERATED VIA SPACE-TRACK.ORG API,2004-08-16T23:15:56,18 SPCS,SL-6 PLAT,1982-015C,EARTH,TEME,UTC,SGP4,1982-03-13T14:10:40.229759,16.45133724,0.0031647,62.8256,351.1569,120.9963,239.406,0,U,13072,999,235,0.00023441,0.15533074,4.0055e-05,6530.322,87.53,172.854,131.521,DEBRIS,,,,,1982-03-13,34345,12893294,0 SL-6 PLAT,1 13072U 82015  C 82072.59074340  .15533074 +40055-4 +23441-3 0  9993,2 13072 062.8256 351.1569 0031647 120.9963 239.4060 16.45133724002355
3.0,GENERATED VIA SPACE-TRACK.ORG API,2004-08-16T23:17:50,18 SPCS,SL-8 R/B,1983-102B,EARTH,TEME,UTC,SGP4,1984-06-01T05:27:39.079296,16.5067558,0.0014473,65.8001,80.6041,260.9843,99.0337,0,U,14396,999,3776,0.00024402,0.26811829,3.1315e-05,6515.698,87.237,146.993,128.133,ROCKET BODY,,,,,1984-06-01,34383,13925122,0 SL-8 R/B,1 14396U 83102  B 84153.22753564  .26811829 +31315-4 +24402-3 0  9991,2 14396 065.8001 080.6041 0014473 260.9843 099.0337 16.50675580037762
3.0,GENERATED VIA SPACE-TRACK.ORG API,2018-11-10T12:18:15,18 SPCS,FLOCK 2EP 15,1998-067KL,EARTH,TEME,UTC,SGP4,2018-11-10T08:33:59.598720,16.37516866,0.00048,51.6147,297.393,130.8519,229.2277,0,U,41764,999,12322,0.001101,0.11338657,1.2278e-05,6550.553,87.938,175.562,169.274,PAYLOAD,SMALL,US,1998-11-20,TTMTR,2018-11-10,2358330,124484568,0 FLOCK 2EP 15,1 41764U 98067KL  18314.35693980  .11338657  12278-4  11010-2 0  9995,2 41764  51.6147 297.3930 0004800 130.8519 229.2277 16.37516866123220
3.0,GENERATED VIA SPACE-TRACK.ORG API,2004-08-15T23:39:35,18 SPCS,COSMOS 252 DEB,1968-097DQ,EARTH,TEME,UTC,SGP4,1975-03-02T20:40:05.235744,13.39813895,0.0784474,62.3372,239.2169,207.965,147.6999,0,U,5889,999,9145,0.0003597,8.95e-06,4.1464e-07,7488.114,107.477,1697.402,522.556,DEBRIS,SMALL,CIS,1968-11-01,TTMTR,1982-11-19,33990,9470785,0 COSMOS 252 DEB,1 05889U 68097 DQ 75061.86117171  .00000895 +41464-6 +35970-3 0  9995,2 05889 062.3372 239.2169 0784474 207.9650 147.6999 13.39813895091454
3.0,GENERATED VIA SPACE-TRACK.ORG API,2004-08-15T23:35:47,18 SPCS,TITAN 3C TRANSTAGE DEB,1965-082FL,EARTH,TEME,UTC,SGP4,1966-08-20T07:16:23.791296,15.54350638,0.0061282,32.5373,286.276,253.86,105.4674,0,U,1895,999,4673,0.0,0.00548525,0.00046042,6782.182,92.643,445.609,362.484,DEBRIS,,,,,1966-09-08,33914,8717668,0 TITAN 3C TRANSTAGE DEB,1 01895U 65082 FL 66232.30305314  .00548525 +46042-3 +00000-0 0  9990,2 01895 032.5373 286.2760 0061282 253.8600 105.4674 15.54350638046739
3.0,GENERATED VIA SPACE-TRACK.ORG API,2023-03-02T02:30:55,18 SPCS,CZ-2D DEB,2020-003F,EARTH,TEME,UTC,SGP4,2023-03-01T03:17:50.199648,16.33880601,0.0010208,97.1899,135.8347,269.7771,90.2356,0,U,45021,999,17516,0.0015397,0.09877989,2.3828e-06,6560.269,88.134,188.83,175.437,DEBRIS,SMALL,PRC,2020-01-15,TSC,2023-03-07,3848834,227316226,0 CZ-2D DEB,1 45021U 20003F   23060.13738657  .09877989  23828-5  15397-2 0  9990,2 45021  97.1899 135.8347 0010208 269.7771  90.2356 16.33880601175169
3.0,GENERATED VIA SPACE-TRACK.ORG API,2004-08-15T23:41:50,18 SPCS,SL-4 DEB,1978-085C,EARTH,TEME,UTC,SGP4,1978-09-09T22:08:45.079872,16.18755222,0.0082821,62.7898,162.4183,62.4413,299.6705,0,U,11024,999,5,0.0,0.00022741,0.0,6601.074,88.957,277.61,168.269,DEBRIS,,,,,1979-04-17,34035,10517828,0 SL-4 DEB,1 11024U 78085  C 78252.92274398  .00022741 +00000-0 +00000-0 0  9990,2 11024 062.7898 162.4183 0082821 062.4413 299.6705 16.18755222000058
3.0,GENERATED VIA SPACE-TRACK.ORG API,2017-02-09T12:26:03,18 SPCS,COSMOS 2251 DEB,1993-036AAJ,EARTH,TEME,UTC,SGP4,2017-02-01T08:52:38.483904,15.9740381,0.0020504,74.0052,148.633,347.8556,12.2184,0,U,34781,999,42153,0.010457,0.03861703,0.020161,6659.761,90.146,295.281,267.971,DEBRIS,SMALL,CIS,1993-06-16,PKMTR,2017-02-03,2149353,109804232,0 COSMOS 2251 DEB,1 34781U 93036AAJ 17032.36988986  .03861703  20161-1  10457-1 0  9991,2 34781  74.0052 148.6330 0020504 347.8556  12.2184 15.97403810421538
3.0,GENERATED VIA SPACE-TRACK.ORG API,2024-01-09T18:14:52,18 SPCS,COSMOS 1408 DEB,1982-092BMP,EARTH,TEME,UTC,SGP4,2024-01-08T11:04:21.923040,16.01969516,0.0012876,82.5623,73.3799,191.4743,168.6245,0,U,51562,999,10966,0.002898,0.01618616,0.001613,6647.102,89.889,277.526,260.408,DEBRIS,SMALL,CIS,1982-09-16,PKMTR,2024-01-12,4157515,246636009,0 COSMOS 1408 DEB,1 51562U 82092BMP 24008.46136485  .01618616  16130-2  28980-2 0  9992,2 51562  82.5623  73.3799 0012876 191.4743 168.6245 16.01969516109666
3.0,GENERATED VIA SPACE-TRACK.ORG API,2004-08-16T23:15:23,18 SPCS,SALYUT 6 DEB,1977-097CS,EARTH,TEME,UTC,SGP4,1981-04-18T20:30:13.546079,15.94187768,0.0003974,51.6273,274.0441,219.5738,140.8828,0,U,12393,999,20464,0.0051081,0.01954605,0.0,6668.719,90.328,293.234,287.934,DEBRIS,,,,,1981-04-19,34334,12260467,0 SALYUT 6 DEB,1 12393U 77097 CS 81108.85432345  .01954605 +00000-0 +51081-2 0  9997,2 12393 051.6273 274.0441 0003974 219.5738 140.8828 15.94187768204647
3.0,GENERATED VIA SPACE-TRACK.ORG API,2021-11-22T04:16:11,18 SPCS,CZ-3B R/B,2021-071B,EARTH,TEME,UTC,SGP4,2021-11-21T23:18:39.157920,14.23952342,0.1018186,27.065,127.9148,299.518,193.5367,0,U,49063,999,339,0.0012432,0.99999999,-8.6372e-06,7190.154,101.127,1544.111,79.928,ROCKET BODY,LARGE,PRC,2021-08-05,XSC,2021-11-22,3220932,190211501,0 CZ-3B R/B,1 49063U 21071B   21325.97128655  .99999999 -86372-5  12432-2 0  9997,2 49063  27.0650 127.9148 1018186 299.5180 193.5367 14.23952342  3399
3.0,GENERATED VIA SPACE-TRACK.ORG API,2022-02-26T19:29:06,18 SPCS,COSMOS 1408 DEB,1982-092MS,EARTH,TEME,UTC,SGP4,2022-02-26T08:19:44.218848,16.17817302,0.0017777,82.5585,17.123,170.7177,189.4443,0,U,49883,999,1540,0.0052604,0.08636747,-1.2463e-06,6603.622,89.009,237.226,213.748,DEBRIS,SMALL,CIS,1982-09-16,PKMTR,2022-02-27,3326397,197113935,0 COSMOS 1408 DEB,1 49883U 82092MS  22057.34703957  .08636747 -12463-5  52604-2 0  9999,2 49883  82.5585  17.1230 0017777 170.7177 189.4443 16.17817302 15409
